{
  "norad_id": 68728,
  "name": "STARLINK-37242",
  "history": [
    {
      "epoch": "2026-04-23T13:20:51.461088Z",
      "apogee_km": 328.98120867808757,
      "perigee_km": 326.59550867248527,
      "latitude_deg": 7.169232378644752e-06,
      "longitude_deg": -76.14691112159974,
      "height_km": 331.77334828514176,
      "semi_major_axis_km": 6705.925358675286,
      "eccentricity": 0.00017788,
      "inclination_deg": 97.2887,
      "raan_deg": 335.6692,
      "arg_perigee_deg": 132.8318,
      "mean_anomaly_deg": 227.31,
      "mean_motion_rev_day": 15.80937457
    }
  ]
}