STARLINK-37242          
1 68728U 26082A   26113.55615117  .00110239  00000+0  56586-3 0  9991
2 68728  97.2887 335.6692 0001778 132.8318 227.3100 15.80937457  1181
